[{"OBJECT_NAME":"SHIJIAN-17 (SJ-17)","OBJECT_ID":"2016-065A","EPOCH":"2022-08-18T21:06:01.145088","MEAN_MOTION":1.00143159,"ECCENTRICITY":8.74e-5,"INCLINATION":2.1816,"RA_OF_ASC_NODE":88.9527,"ARG_OF_PERICENTER":180.2414,"MEAN_ANOMALY":117.0972,"EPHEMERIS_TYPE":0,"CLASSIFICATION_TYPE":"U","NORAD_CAT_ID":41838,"ELEMENT_SET_NO":999,"REV_AT_EPOCH":2118,"BSTAR":0,"MEAN_MOTION_DOT":-3.08e-6,"MEAN_MOTION_DDOT":0},{"OBJECT_NAME":"GOES 16","OBJECT_ID":"2016-071A","EPOCH":"2022-08-18T20:11:24.565056","MEAN_MOTION":1.00271733,"ECCENTRICITY":6.38e-5,"INCLINATION":0.0561,"RA_OF_ASC_NODE":270.735,"ARG_OF_PERICENTER":295.6705,"MEAN_ANOMALY":348.412,"EPHEMERIS_TYPE":0,"CLASSIFICATION_TYPE":"U","NORAD_CAT_ID":41866,"ELEMENT_SET_NO":999,"REV_AT_EPOCH":2109,"BSTAR":0,"MEAN_MOTION_DOT":-2.55e-6,"MEAN_MOTION_DDOT":0},{"OBJECT_NAME":"TIANLIAN 1-04","OBJECT_ID":"2016-072A","EPOCH":"2022-08-18T17:56:58.668000","MEAN_MOTION":1.00276043,"ECCENTRICITY":0.0028814,"INCLINATION":0.1554,"RA_OF_ASC_NODE":259.9018,"ARG_OF_PERICENTER":226.1485,"MEAN_ANOMALY":287.1462,"EPHEMERIS_TYPE":0,"CLASSIFICATION_TYPE":"U","NORAD_CAT_ID":41869,"ELEMENT_SET_NO":999,"REV_AT_EPOCH":2129,"BSTAR":0,"MEAN_MOTION_DOT":2.5e-7,"MEAN_MOTION_DDOT":0},{"OBJECT_NAME":"WGS F8 (USA 272)","OBJECT_ID":"2016-075A","EPOCH":"2022-08-18T22:59:18.952800","MEAN_MOTION":1.00271368,"ECCENTRICITY":2.41e-5,"INCLINATION":0.0194,"RA_OF_ASC_NODE":88.5243,"ARG_OF_PERICENTER":42.5349,"MEAN_ANOMALY":330.8567,"EPHEMERIS_TYPE":0,"CLASSIFICATION_TYPE":"U","NORAD_CAT_ID":41879,"ELEMENT_SET_NO":999,"REV_AT_EPOCH":2090,"BSTAR":0,"MEAN_MOTION_DOT":-2.09e-6,"MEAN_MOTION_DDOT":0},{"OBJECT_NAME":"FENGYUN 4A","OBJECT_ID":"2016-077A","EPOCH":"2022-08-19T04:57:45.614880","MEAN_MOTION":1.00266777,"ECCENTRICITY":0.0003067,"INCLINATION":0.1284,"RA_OF_ASC_NODE":83.1907,"ARG_OF_PERICENTER":39.7021,"MEAN_ANOMALY":23.6389,"EPHEMERIS_TYPE":0,"CLASSIFICATION_TYPE":"U","NORAD_CAT_ID":41882,"ELEMENT_SET_NO":999,"REV_AT_EPOCH":2096,"BSTAR":0,"MEAN_MOTION_DOT":-3.35e-6,"MEAN_MOTION_DDOT":0},{"OBJECT_NAME":"ECHOSTAR 19","OBJECT_ID":"2016-079A","EPOCH":"2022-08-19T01:15:05.002272","MEAN_MOTION":1.00272356,"ECCENTRICITY":0.0001876,"INCLINATION":0.0142,"RA_OF_ASC_NODE":113.7635,"ARG_OF_PERICENTER":50.8511,"MEAN_ANOMALY":84.4227,"EPHEMERIS_TYPE":0,"CLASSIFICATION_TYPE":"U","NORAD_CAT_ID":41893,"ELEMENT_SET_NO":999,"REV_AT_EPOCH":2071,"BSTAR":0,"MEAN_MOTION_DOT":-1.45e-6,"MEAN_MOTION_DDOT":0},{"OBJECT_NAME":"JCSAT-110A (JCSAT-15)","OBJECT_ID":"2016-082A","EPOCH":"2022-08-19T00:50:42.544032","MEAN_MOTION":1.00271643,"ECCENTRICITY":0.0001025,"INCLINATION":0.0161,"RA_OF_ASC_NODE":117.1418,"ARG_OF_PERICENTER":72.5958,"MEAN_ANOMALY":260.3598,"EPHEMERIS_TYPE":0,"CLASSIFICATION_TYPE":"U","NORAD_CAT_ID":41903,"ELEMENT_SET_NO":999,"REV_AT_EPOCH":2076,"BSTAR":0,"MEAN_MOTION_DOT":-3.57e-6,"MEAN_MOTION_DDOT":0},{"OBJECT_NAME":"STAR ONE D1","OBJECT_ID":"2016-082B","EPOCH":"2022-08-18T21:20:17.596320","MEAN_MOTION":1.00270396,"ECCENTRICITY":0.0001855,"INCLINATION":0.0131,"RA_OF_ASC_NODE":84.6205,"ARG_OF_PERICENTER":59.7152,"MEAN_ANOMALY":58.945,"EPHEMERIS_TYPE":0,"CLASSIFICATION_TYPE":"U","NORAD_CAT_ID":41904,"ELEMENT_SET_NO":999,"REV_AT_EPOCH":2075,"BSTAR":0,"MEAN_MOTION_DOT":-2.17e-6,"MEAN_MOTION_DDOT":0},{"OBJECT_NAME":"TJS-2","OBJECT_ID":"2017-001A","EPOCH":"2022-08-18T15:12:28.079712","MEAN_MOTION":1.00271262,"ECCENTRICITY":0.0005616,"INCLINATION":0.308,"RA_OF_ASC_NODE":283.8263,"ARG_OF_PERICENTER":277.4865,"MEAN_ANOMALY":60.2418,"EPHEMERIS_TYPE":0,"CLASSIFICATION_TYPE":"U","NORAD_CAT_ID":41911,"ELEMENT_SET_NO":999,"REV_AT_EPOCH":2070,"BSTAR":0,"MEAN_MOTION_DOT":-1.3e-7,"MEAN_MOTION_DDOT":0},{"OBJECT_NAME":"SBIRS GEO-4 (USA 273)","OBJECT_ID":"2017-004A","EPOCH":"2022-08-19T01:08:42.938880","MEAN_MOTION":1.0027276,"ECCENTRICITY":0.0002146,"INCLINATION":2.2178,"RA_OF_ASC_NODE":319.7272,"ARG_OF_PERICENTER":196.4329,"MEAN_ANOMALY":28.9792,"EPHEMERIS_TYPE":0,"CLASSIFICATION_TYPE":"U","NORAD_CAT_ID":41937,"ELEMENT_SET_NO":999,"REV_AT_EPOCH":2058,"BSTAR":0,"MEAN_MOTION_DOT":1.26e-6,"MEAN_MOTION_DDOT":0},{"OBJECT_NAME":"HISPASAT 36W-1","OBJECT_ID":"2017-006A","EPOCH":"2022-08-19T02:28:42.513312","MEAN_MOTION":1.00272802,"ECCENTRICITY":0.0001091,"INCLINATION":0.03,"RA_OF_ASC_NODE":321.4266,"ARG_OF_PERICENTER":185.2596,"MEAN_ANOMALY":181.92,"EPHEMERIS_TYPE":0,"CLASSIFICATION_TYPE":"U","NORAD_CAT_ID":41942,"ELEMENT_SET_NO":999,"REV_AT_EPOCH":2051,"BSTAR":0,"MEAN_MOTION_DOT":-2.51e-6,"MEAN_MOTION_DDOT":0},{"OBJECT_NAME":"TELKOM 3S","OBJECT_ID":"2017-007A","EPOCH":"2022-08-18T17:58:42.672000","MEAN_MOTION":1.00268811,"ECCENTRICITY":0.0002213,"INCLINATION":0.0068,"RA_OF_ASC_NODE":298.4412,"ARG_OF_PERICENTER":208.2668,"MEAN_ANOMALY":208.0124,"EPHEMERIS_TYPE":0,"CLASSIFICATION_TYPE":"U","NORAD_CAT_ID":41944,"ELEMENT_SET_NO":999,"REV_AT_EPOCH":2011,"BSTAR":0,"MEAN_MOTION_DOT":-3.7e-6,"MEAN_MOTION_DDOT":0},{"OBJECT_NAME":"INTELSAT 32E (IS-32E)","OBJECT_ID":"2017-007B","EPOCH":"2022-08-19T02:28:42.513312","MEAN_MOTION":1.00273563,"ECCENTRICITY":1.53e-5,"INCLINATION":0.018,"RA_OF_ASC_NODE":111.8968,"ARG_OF_PERICENTER":16.8513,"MEAN_ANOMALY":192.6736,"EPHEMERIS_TYPE":0,"CLASSIFICATION_TYPE":"U","NORAD_CAT_ID":41945,"ELEMENT_SET_NO":999,"REV_AT_EPOCH":2022,"BSTAR":0,"MEAN_MOTION_DOT":-2.75e-6,"MEAN_MOTION_DDOT":0},{"OBJECT_NAME":"ECHOSTAR 23","OBJECT_ID":"2017-014A","EPOCH":"2022-08-18T15:19:26.013792","MEAN_MOTION":1.00271602,"ECCENTRICITY":0.0001904,"INCLINATION":0.0196,"RA_OF_ASC_NODE":111.4494,"ARG_OF_PERICENTER":38.6419,"MEAN_ANOMALY":296.8287,"EPHEMERIS_TYPE":0,"CLASSIFICATION_TYPE":"U","NORAD_CAT_ID":42070,"ELEMENT_SET_NO":999,"REV_AT_EPOCH":1989,"BSTAR":0,"MEAN_MOTION_DOT":-6.4e-7,"MEAN_MOTION_DDOT":0},{"OBJECT_NAME":"WGS F9 (USA 275)","OBJECT_ID":"2017-016A","EPOCH":"2022-08-19T02:36:42.647616","MEAN_MOTION":1.00273618,"ECCENTRICITY":4.3e-5,"INCLINATION":0.0092,"RA_OF_ASC_NODE":110.0927,"ARG_OF_PERICENTER":115.4334,"MEAN_ANOMALY":129.0844,"EPHEMERIS_TYPE":0,"CLASSIFICATION_TYPE":"U","NORAD_CAT_ID":42075,"ELEMENT_SET_NO":999,"REV_AT_EPOCH":1990,"BSTAR":0,"MEAN_MOTION_DOT":-1.02e-6,"MEAN_MOTION_DDOT":0},{"OBJECT_NAME":"SES-10","OBJECT_ID":"2017-017A","EPOCH":"2022-08-18T20:13:47.712576","MEAN_MOTION":1.00269599,"ECCENTRICITY":0.0002705,"INCLINATION":0.0164,"RA_OF_ASC_NODE":92.2812,"ARG_OF_PERICENTER":58.2289,"MEAN_ANOMALY":53.189,"EPHEMERIS_TYPE":0,"CLASSIFICATION_TYPE":"U","NORAD_CAT_ID":42432,"ELEMENT_SET_NO":999,"REV_AT_EPOCH":1972,"BSTAR":0,"MEAN_MOTION_DOT":-2.79e-6,"MEAN_MOTION_DDOT":0},{"OBJECT_NAME":"CHINASAT 16 (SJ-13)","OBJECT_ID":"2017-018A","EPOCH":"2022-08-19T07:24:33.717312","MEAN_MOTION":1.00268378,"ECCENTRICITY":0.0006452,"INCLINATION":0.0797,"RA_OF_ASC_NODE":93.3658,"ARG_OF_PERICENTER":125.5195,"MEAN_ANOMALY":330.376,"EPHEMERIS_TYPE":0,"CLASSIFICATION_TYPE":"U","NORAD_CAT_ID":42662,"ELEMENT_SET_NO":999,"REV_AT_EPOCH":1972,"BSTAR":0,"MEAN_MOTION_DOT":-3.58e-6,"MEAN_MOTION_DDOT":0},{"OBJECT_NAME":"KOREASAT 7","OBJECT_ID":"2017-023A","EPOCH":"2022-08-18T21:06:09.437760","MEAN_MOTION":1.00269843,"ECCENTRICITY":9.73e-5,"INCLINATION":0.024,"RA_OF_ASC_NODE":56.5091,"ARG_OF_PERICENTER":113.2351,"MEAN_ANOMALY":229.8953,"EPHEMERIS_TYPE":0,"CLASSIFICATION_TYPE":"U","NORAD_CAT_ID":42691,"ELEMENT_SET_NO":999,"REV_AT_EPOCH":1936,"BSTAR":0,"MEAN_MOTION_DOT":-3.69e-6,"MEAN_MOTION_DDOT":0},{"OBJECT_NAME":"SGDC","OBJECT_ID":"2017-023B","EPOCH":"2022-08-18T07:12:54.908064","MEAN_MOTION":1.0026915,"ECCENTRICITY":0.0002191,"INCLINATION":0.0076,"RA_OF_ASC_NODE":71.4753,"ARG_OF_PERICENTER":79.7315,"MEAN_ANOMALY":208.8053,"EPHEMERIS_TYPE":0,"CLASSIFICATION_TYPE":"U","NORAD_CAT_ID":42692,"ELEMENT_SET_NO":999,"REV_AT_EPOCH":1939,"BSTAR":0,"MEAN_MOTION_DOT":-2.57e-6,"MEAN_MOTION_DDOT":0},{"OBJECT_NAME":"GSAT-9","OBJECT_ID":"2017-024A","EPOCH":"2022-08-19T01:05:42.545184","MEAN_MOTION":1.00270669,"ECCENTRICITY":0.000203,"INCLINATION":0.1214,"RA_OF_ASC_NODE":274.5971,"ARG_OF_PERICENTER":242.9292,"MEAN_ANOMALY":283.6625,"EPHEMERIS_TYPE":0,"CLASSIFICATION_TYPE":"U","NORAD_CAT_ID":42695,"ELEMENT_SET_NO":999,"REV_AT_EPOCH":1941,"BSTAR":0,"MEAN_MOTION_DOT":-2.93e-6,"MEAN_MOTION_DDOT":0},{"OBJECT_NAME":"INMARSAT 5-F4","OBJECT_ID":"2017-025A","EPOCH":"2022-08-19T00:15:47.225664","MEAN_MOTION":1.00272302,"ECCENTRICITY":6.62e-5,"INCLINATION":0.0174,"RA_OF_ASC_NODE":117.9943,"ARG_OF_PERICENTER":118.2927,"MEAN_ANOMALY":151.4769,"EPHEMERIS_TYPE":0,"CLASSIFICATION_TYPE":"U","NORAD_CAT_ID":42698,"ELEMENT_SET_NO":999,"REV_AT_EPOCH":1924,"BSTAR":0,"MEAN_MOTION_DOT":6.9e-7,"MEAN_MOTION_DDOT":0},{"OBJECT_NAME":"SES-15","OBJECT_ID":"2017-026A","EPOCH":"2022-08-19T04:28:03.891360","MEAN_MOTION":1.00276235,"ECCENTRICITY":6.77e-5,"INCLINATION":0.0275,"RA_OF_ASC_NODE":349.1895,"ARG_OF_PERICENTER":198.4004,"MEAN_ANOMALY":77.7781,"EPHEMERIS_TYPE":0,"CLASSIFICATION_TYPE":"U","NORAD_CAT_ID":42709,"ELEMENT_SET_NO":999,"REV_AT_EPOCH":2016,"BSTAR":0,"MEAN_MOTION_DOT":5.3e-7,"MEAN_MOTION_DDOT":0},{"OBJECT_NAME":"VIASAT-2","OBJECT_ID":"2017-029A","EPOCH":"2022-08-18T13:59:42.703296","MEAN_MOTION":1.00272003,"ECCENTRICITY":2.24e-5,"INCLINATION":0.0367,"RA_OF_ASC_NODE":281.6601,"ARG_OF_PERICENTER":312.7204,"MEAN_ANOMALY":232.5362,"EPHEMERIS_TYPE":0,"CLASSIFICATION_TYPE":"U","NORAD_CAT_ID":42740,"ELEMENT_SET_NO":999,"REV_AT_EPOCH":1917,"BSTAR":0,"MEAN_MOTION_DOT":-2.72e-6,"MEAN_MOTION_DDOT":0},{"OBJECT_NAME":"EUTELSAT 172B","OBJECT_ID":"2017-029B","EPOCH":"2022-08-18T21:22:21.339264","MEAN_MOTION":1.00272173,"ECCENTRICITY":1.24e-5,"INCLINATION":0.0395,"RA_OF_ASC_NODE":155.6578,"ARG_OF_PERICENTER":111.1338,"MEAN_ANOMALY":193.0112,"EPHEMERIS_TYPE":0,"CLASSIFICATION_TYPE":"U","NORAD_CAT_ID":42741,"ELEMENT_SET_NO":999,"REV_AT_EPOCH":1969,"BSTAR":0,"MEAN_MOTION_DOT":-1.2e-7,"MEAN_MOTION_DDOT":0}]